{
  "type": "FeatureCollection",
  "features": [
    {
      "type": "Feature",
      "properties": {
        "norad_id": 66633,
        "name": "STARLINK-35948",
        "group": "last-30-days",
        "lat": -53.0263371160724,
        "lon": 84.42778062000919,
        "alt_km": 430.1731532697304,
        "timestamp": "2025-12-14T07:33:18.187566+00:00",
        "meta_object_name": "STARLINK-35948",
        "meta_object_id": "2025-271S",
        "meta_epoch": "2025-12-13T14:00:03.000384",
        "meta_mean_motion": 15.49702109,
        "meta_eccentricity": 0.00013524,
        "meta_inclination": 53.1599,
        "meta_ra_of_asc_node": 183.1323,
        "meta_arg_of_pericenter": 100.3266,
        "meta_mean_anomaly": 46.7728,
        "meta_ephemeris_type": 0,
        "meta_classification_type": "U",
        "meta_norad_cat_id": 66633,
        "meta_element_set_no": 999,
        "meta_rev_at_epoch": 437,
        "meta_bstar": -0.029633917,
        "meta_mean_motion_dot": -0.01512529,
        "meta_mean_motion_ddot": 0,
        "tle_line1": "1 66633U 25271S   25347.58336806 -.01512529  00000+0 -29634-1 0  9992",
        "tle_line2": "2 66633  53.1599 183.1323 0001352 100.3266  46.7728 15.49702109  4374"
      },
      "geometry": {
        "type": "Point",
        "coordinates": [
          84.42778062000919,
          -53.0263371160724
        ]
      }
    },
    {
      "type": "Feature",
      "properties": {
        "norad_id": 66634,
        "name": "STARLINK-35967",
        "group": "last-30-days",
        "lat": -53.13029767265366,
        "lon": 91.20921432765029,
        "alt_km": 424.12953464003476,
        "timestamp": "2025-12-14T07:33:18.187576+00:00",
        "meta_object_name": "STARLINK-35967",
        "meta_object_id": "2025-271T",
        "meta_epoch": "2025-12-13T14:00:03.000384",
        "meta_mean_motion": 15.49253079,
        "meta_eccentricity": 0.00010999,
        "meta_inclination": 53.1604,
        "meta_ra_of_asc_node": 183.1284,
        "meta_arg_of_pericenter": 100.1695,
        "meta_mean_anomaly": 48.9174,
        "meta_ephemeris_type": 0,
        "meta_classification_type": "U",
        "meta_norad_cat_id": 66634,
        "meta_element_set_no": 999,
        "meta_rev_at_epoch": 431,
        "meta_bstar": 0.0014043306,
        "meta_mean_motion_dot": 0.00078286,
        "meta_mean_motion_ddot": 0,
        "tle_line1": "1 66634U 25271T   25347.58336806  .00078286  00000+0  14043-2 0  9996",
        "tle_line2": "2 66634  53.1604 183.1284 0001099 100.1695  48.9174 15.49253079  4310"
      },
      "geometry": {
        "type": "Point",
        "coordinates": [
          91.20921432765029,
          -53.13029767265366
        ]
      }
    },
    {
      "type": "Feature",
      "properties": {
        "norad_id": 66635,
        "name": "STARLINK-35955",
        "group": "last-30-days",
        "lat": -53.04562670121888,
        "lon": 94.3828987393673,
        "alt_km": 423.5895935389799,
        "timestamp": "2025-12-14T07:33:18.187587+00:00",
        "meta_object_name": "STARLINK-35955",
        "meta_object_id": "2025-271U",
        "meta_epoch": "2025-12-13T14:00:03.000384",
        "meta_mean_motion": 15.49250086,
        "meta_eccentricity": 2.82e-05,
        "meta_inclination": 53.1602,
        "meta_ra_of_asc_node": 183.1245,
        "meta_arg_of_pericenter": 137.5516,
        "meta_mean_anomaly": 13.4829,
        "meta_ephemeris_type": 0,
        "meta_classification_type": "U",
        "meta_norad_cat_id": 66635,
        "meta_element_set_no": 999,
        "meta_rev_at_epoch": 437,
        "meta_bstar": 0.0011633588,
        "meta_mean_motion_dot": 0.00064656,
        "meta_mean_motion_ddot": 0,
        "tle_line1": "1 66635U 25271U   25347.58336806  .00064656  00000+0  11634-2 0  9996",
        "tle_line2": "2 66635  53.1602 183.1245 0000282 137.5516  13.4829 15.49250086  4370"
      },
      "geometry": {
        "type": "Point",
        "coordinates": [
          94.3828987393673,
          -53.04562670121888
        ]
      }
    },
    {
      "type": "Feature",
      "properties": {
        "norad_id": 66636,
        "name": "STARLINK-35968",
        "group": "last-30-days",
        "lat": -52.88619073374494,
        "lon": 97.39513214427318,
        "alt_km": 424.15100546562553,
        "timestamp": "2025-12-14T07:33:18.187597+00:00",
        "meta_object_name": "STARLINK-35968",
        "meta_object_id": "2025-271V",
        "meta_epoch": "2025-12-13T14:00:03.000384",
        "meta_mean_motion": 15.49367683,
        "meta_eccentricity": 5.632e-05,
        "meta_inclination": 53.16,
        "meta_ra_of_asc_node": 183.1205,
        "meta_arg_of_pericenter": 82.4875,
        "meta_mean_anomaly": 70.3662,
        "meta_ephemeris_type": 0,
        "meta_classification_type": "U",
        "meta_norad_cat_id": 66636,
        "meta_element_set_no": 999,
        "meta_rev_at_epoch": 437,
        "meta_bstar": -0.00162201,
        "meta_mean_motion_dot": -0.0008981,
        "meta_mean_motion_ddot": 0,
        "tle_line1": "1 66636U 25271V   25347.58336806 -.00089810  00000+0 -16220-2 0  9994",
        "tle_line2": "2 66636  53.1600 183.1205 0000563  82.4875  70.3662 15.49367683  4372"
      },
      "geometry": {
        "type": "Point",
        "coordinates": [
          97.39513214427318,
          -52.88619073374494
        ]
      }
    },
    {
      "type": "Feature",
      "properties": {
        "norad_id": 66637,
        "name": "STARLINK-35953",
        "group": "last-30-days",
        "lat": -52.62509126031813,
        "lon": 100.66328018670093,
        "alt_km": 423.61074537535114,
        "timestamp": "2025-12-14T07:33:18.187607+00:00",
        "meta_object_name": "STARLINK-35953",
        "meta_object_id": "2025-271W",
        "meta_epoch": "2025-12-13T14:00:03.000384",
        "meta_mean_motion": 15.49303945,
        "meta_eccentricity": 5.174e-05,
        "meta_inclination": 53.1602,
        "meta_ra_of_asc_node": 183.1169,
        "meta_arg_of_pericenter": 80.1329,
        "meta_mean_anomaly": 74.5796,
        "meta_ephemeris_type": 0,
        "meta_classification_type": "U",
        "meta_norad_cat_id": 66637,
        "meta_element_set_no": 999,
        "meta_rev_at_epoch": 437,
        "meta_bstar": 0.0012711131,
        "meta_mean_motion_dot": 0.00070877,
        "meta_mean_motion_ddot": 0,
        "tle_line1": "1 66637U 25271W   25347.58336806  .00070877  00000+0  12711-2 0  9997",
        "tle_line2": "2 66637  53.1602 183.1169 0000517  80.1329  74.5796 15.49303945  4377"
      },
      "geometry": {
        "type": "Point",
        "coordinates": [
          100.66328018670093,
          -52.62509126031813
        ]
      }
    },
    {
      "type": "Feature",
      "properties": {
        "norad_id": 66638,
        "name": "STARLINK-35972",
        "group": "last-30-days",
        "lat": -52.289191728088234,
        "lon": 103.77025872963551,
        "alt_km": 423.578484083343,
        "timestamp": "2025-12-14T07:33:18.187617+00:00",
        "meta_object_name": "STARLINK-35972",
        "meta_object_id": "2025-271X",
        "meta_epoch": "2025-12-13T14:00:03.000384",
        "meta_mean_motion": 15.49302707,
        "meta_eccentricity": 4.833e-05,
        "meta_inclination": 53.1603,
        "meta_ra_of_asc_node": 183.1135,
        "meta_arg_of_pericenter": 83.5679,
        "meta_mean_anomaly": 73.0728,
        "meta_ephemeris_type": 0,
        "meta_classification_type": "U",
        "meta_norad_cat_id": 66638,
        "meta_element_set_no": 999,
        "meta_rev_at_epoch": 437,
        "meta_bstar": 0.0013007708,
        "meta_mean_motion_dot": 0.00072554,
        "meta_mean_motion_ddot": 0,
        "tle_line1": "1 66638U 25271X   25347.58336806  .00072554  00000+0  13008-2 0  9992",
        "tle_line2": "2 66638  53.1603 183.1135 0000483  83.5679  73.0728 15.49302707  4373"
      },
      "geometry": {
        "type": "Point",
        "coordinates": [
          103.77025872963551,
          -52.289191728088234
        ]
      }
    },
    {
      "type": "Feature",
      "properties": {
        "norad_id": 66639,
        "name": "STARLINK-35908",
        "group": "last-30-days",
        "lat": -51.876709391219634,
        "lon": 106.79751387073793,
        "alt_km": 423.57852389784784,
        "timestamp": "2025-12-14T07:33:18.187627+00:00",
        "meta_object_name": "STARLINK-35908",
        "meta_object_id": "2025-271Y",
        "meta_epoch": "2025-12-13T14:00:03.000384",
        "meta_mean_motion": 15.49301111,
        "meta_eccentricity": 5.273e-05,
        "meta_inclination": 53.1603,
        "meta_ra_of_asc_node": 183.1087,
        "meta_arg_of_pericenter": 77.1854,
        "meta_mean_anomaly": 81.3683,
        "meta_ephemeris_type": 0,
        "meta_classification_type": "U",
        "meta_norad_cat_id": 66639,
        "meta_element_set_no": 999,
        "meta_rev_at_epoch": 437,
        "meta_bstar": 0.0013377671,
        "meta_mean_motion_dot": 0.00074646,
        "meta_mean_motion_ddot": 0,
        "tle_line1": "1 66639U 25271Y   25347.58336806  .00074646  00000+0  13378-2 0  9997",
        "tle_line2": "2 66639  53.1603 183.1087 0000527  77.1854  81.3683 15.49301111  4373"
      },
      "geometry": {
        "type": "Point",
        "coordinates": [
          106.79751387073793,
          -51.876709391219634
        ]
      }
    }
  ]
}